{"type":"FeatureCollection","properties":{"datasetId":"dataset:novegeo:landforms","datasetVersion":1,"boundaryId":"boundary:novegeo:sovereign","boundaryVersion":2,"terrainDatasetId":"dataset:novegeo:terrain:elevation","terrainDatasetVersion":1,"coordinateReferenceId":"crs:novegeo:geographic","coordinateReferenceVersion":1,"runtimeMode":"shared_reference","visibility":"public","lifecycleStatus":"candidate","canonicalClasses":["mountain","valley","plain","plateau"],"featureCount":12,"contentSha256":"0cc0e677a55c400708bb0c8b7980a582a592f84a4b76e0566b1334275f3ef98e"},"features":[{"type":"Feature","id":"landform:novegeo:mountain:001","properties":{"landformId":"landform:novegeo:mountain:001","landformVersion":1,"landformClass":"mountain","terrainDatasetId":"dataset:novegeo:terrain:elevation","terrainDatasetVersion":1,"elevationMeters":2778,"influenceRadiusDegrees":0.72,"runtimeMode":"shared_reference"},"geometry":{"type":"Point","coordinates":[34.72,2.152533]}},{"type":"Feature","id":"landform:novegeo:mountain:002","properties":{"landformId":"landform:novegeo:mountain:002","landformVersion":1,"landformClass":"mountain","terrainDatasetId":"dataset:novegeo:terrain:elevation","terrainDatasetVersion":1,"elevationMeters":2512,"influenceRadiusDegrees":0.72,"runtimeMode":"shared_reference"},"geometry":{"type":"Point","coordinates":[34.3,3.412533]}},{"type":"Feature","id":"landform:novegeo:mountain:003","properties":{"landformId":"landform:novegeo:mountain:003","landformVersion":1,"landformClass":"mountain","terrainDatasetId":"dataset:novegeo:terrain:elevation","terrainDatasetVersion":1,"elevationMeters":2472,"influenceRadiusDegrees":0.72,"runtimeMode":"shared_reference"},"geometry":{"type":"Point","coordinates":[34.3,0.892533]}},{"type":"Feature","id":"landform:novegeo:valley:001","properties":{"landformId":"landform:novegeo:valley:001","landformVersion":1,"landformClass":"valley","terrainDatasetId":"dataset:novegeo:terrain:elevation","terrainDatasetVersion":1,"elevationMeters":170,"influenceRadiusDegrees":0.58,"runtimeMode":"shared_reference"},"geometry":{"type":"Point","coordinates":[36.82,7.612533]}},{"type":"Feature","id":"landform:novegeo:valley:002","properties":{"landformId":"landform:novegeo:valley:002","landformVersion":1,"landformClass":"valley","terrainDatasetId":"dataset:novegeo:terrain:elevation","terrainDatasetVersion":1,"elevationMeters":341,"influenceRadiusDegrees":0.58,"runtimeMode":"shared_reference"},"geometry":{"type":"Point","coordinates":[35.14,-7.507467]}},{"type":"Feature","id":"landform:novegeo:valley:003","properties":{"landformId":"landform:novegeo:valley:003","landformVersion":1,"landformClass":"valley","terrainDatasetId":"dataset:novegeo:terrain:elevation","terrainDatasetVersion":1,"elevationMeters":351,"influenceRadiusDegrees":0.58,"runtimeMode":"shared_reference"},"geometry":{"type":"Point","coordinates":[35.14,7.612533]}},{"type":"Feature","id":"landform:novegeo:plain:001","properties":{"landformId":"landform:novegeo:plain:001","landformVersion":1,"landformClass":"plain","terrainDatasetId":"dataset:novegeo:terrain:elevation","terrainDatasetVersion":1,"elevationMeters":73,"influenceRadiusDegrees":0.58,"runtimeMode":"shared_reference"},"geometry":{"type":"Point","coordinates":[44.62,3.95]}},{"type":"Feature","id":"landform:novegeo:plain:002","properties":{"landformId":"landform:novegeo:plain:002","landformVersion":1,"landformClass":"plain","terrainDatasetId":"dataset:novegeo:terrain:elevation","terrainDatasetVersion":1,"elevationMeters":125,"influenceRadiusDegrees":0.58,"runtimeMode":"shared_reference"},"geometry":{"type":"Point","coordinates":[38.92,7.192533]}},{"type":"Feature","id":"landform:novegeo:plain:003","properties":{"landformId":"landform:novegeo:plain:003","landformVersion":1,"landformClass":"plain","terrainDatasetId":"dataset:novegeo:terrain:elevation","terrainDatasetVersion":1,"elevationMeters":130,"influenceRadiusDegrees":0.58,"runtimeMode":"shared_reference"},"geometry":{"type":"Point","coordinates":[37.24,7.612533]}},{"type":"Feature","id":"landform:novegeo:plateau:001","properties":{"landformId":"landform:novegeo:plateau:001","landformVersion":1,"landformClass":"plateau","terrainDatasetId":"dataset:novegeo:terrain:elevation","terrainDatasetVersion":1,"elevationMeters":1840,"influenceRadiusDegrees":0.72,"runtimeMode":"shared_reference"},"geometry":{"type":"Point","coordinates":[36.4,0.892533]}},{"type":"Feature","id":"landform:novegeo:plateau:002","properties":{"landformId":"landform:novegeo:plateau:002","landformVersion":1,"landformClass":"plateau","terrainDatasetId":"dataset:novegeo:terrain:elevation","terrainDatasetVersion":1,"elevationMeters":1827,"influenceRadiusDegrees":0.72,"runtimeMode":"shared_reference"},"geometry":{"type":"Point","coordinates":[37.66,-3.307467]}},{"type":"Feature","id":"landform:novegeo:plateau:003","properties":{"landformId":"landform:novegeo:plateau:003","landformVersion":1,"landformClass":"plateau","terrainDatasetId":"dataset:novegeo:terrain:elevation","terrainDatasetVersion":1,"elevationMeters":1822,"influenceRadiusDegrees":0.72,"runtimeMode":"shared_reference"},"geometry":{"type":"Point","coordinates":[38.92,-3.727467]}}]}
