{"type":"FeatureCollection","novegeoDerivativeContract":"public-boundary-derivative:novegeo:v001","features":[{"type":"Feature","properties":{"derivativeId":"derivative:novegeo:sovereign:v002:overview:v001","derivativeVersion":1,"resolutionClass":"overview","sourceBoundaryId":"boundary:novegeo:sovereign","sourceBoundaryVersion":2,"sourceQualificationId":"qualification:novegeo:world-boundary:v002","sourceQualificationReceiptSha256":"f1795df86bda514e88d714e4d7300c23443b4d55d637b9c7a73b8aacd0b50561","datasetId":"dataset:novegeo:world-boundary","datasetVersion":2,"coordinateReferenceId":"crs:novegeo:geographic","coordinateReferenceVersion":1,"runtimeMode":"shared_reference","visibility":"public","lifecycleStatus":"derivative_candidate","simplificationAlgorithmId":"simplification:novegeo:closed-ring-rdp:v001","simplificationAlgorithmVersion":1,"simplificationToleranceDegrees":0.02,"coordinatePrecisionDecimalPlaces":6,"sourceVertexCount":1048,"derivativeVertexCount":197,"polygonCount":6,"offshoreIslandCount":5,"sourceGeometrySha256":"57edd38c08b00b9ff9a280fedea61ba6ddfc9d164e288c1ef9fd32eb2af94a19","derivativeGeometrySha256":"1af9ab1688d65929f2470c84d0d159f05ecfd89f64d9b5d46b8545d4dbee1f8c","extent":{"minLongitude":29.05,"minLatitude":-7.715442,"maxLongitude":44.805229,"maxLatitude":7.85},"runtimePublicationDeferredTo":"P004.M1.5","contentSha256":"062e460c3fef5e45ac3d2b56594a61c2343b480bafd2376a0c009e6dd4da3b31"},"geometry":{"type":"MultiPolygon","coordinates":[[[[29.05,0.45],[29.061687,-0.28704],[29.125808,-0.651991],[29.199681,-1.508183],[29.222622,-2.221969],[29.2816,-2.550939],[29.381929,-2.873329],[29.506481,-3.981355],[29.578961,-4.287856],[29.768843,-4.711682],[29.887509,-5.257711],[30.15,-5.95],[30.444299,-6.090915],[30.966931,-6.250163],[32.04735,-6.763735],[34.1,-7.35],[36.1,-7.7],[36.730725,-7.715442],[37.044626,-7.6618],[37.779319,-7.631383],[38.2,-7.65],[38.42561,-7.616549],[38.708503,-7.503848],[38.907586,-7.369594],[39.367056,-7.334043],[39.582281,-7.261129],[39.813871,-7.2504],[40.029911,-7.180584],[40.207068,-7.076989],[40.35004,-6.937399],[40.72002,-6.801572],[40.877437,-6.686623],[41.076382,-6.642516],[41.244029,-6.545019],[41.384314,-6.400843],[41.55,-6.3],[41.660297,-6.161428],[42.019754,-5.945053],[42.113027,-5.788647],[42.21492,-5.725978],[42.363417,-5.542719],[42.4546,-5.384123],[42.65,-5.25],[42.903947,-4.996688],[42.962725,-4.786161],[43.223852,-4.410664],[43.38736,-4.27993],[43.534868,-4.093998],[43.613142,-3.774808],[43.819642,-3.584862],[43.876571,-3.462097],[43.978542,-3.366356],[44.05,-3.2],[43.948031,-3.052166],[43.942126,-2.833661],[43.889484,-2.741947],[43.901946,-2.627254],[43.688205,-2.265513],[43.663408,-2.047142],[43.378841,-1.689425],[43.35,-1.55],[43.471209,-1.437673],[43.517785,-1.353466],[43.508264,-1.233197],[43.657769,-0.986862],[43.766466,-0.904542],[43.83391,-0.78438],[43.858661,-0.638785],[43.831394,-0.514311],[43.992149,-0.298665],[44.013333,-0.190342],[44.078159,-0.096566],[44.1,0.05],[43.9659,0.11499],[43.885911,0.282002],[43.808784,0.324662],[43.774262,0.414188],[43.608774,0.487151],[43.513506,0.586217],[43.477332,0.771239],[43.398669,0.810342],[43.369374,0.880861],[43.237641,0.975352],[43.2,1.1],[43.356713,1.196601],[43.381858,1.323363],[43.55715,1.476671],[43.642699,1.497643],[43.745727,1.590099],[43.802472,1.699222],[43.814935,1.806144],[44.018866,1.90992],[44.042967,1.96804],[44.143143,2.04097],[44.2,2.15],[44.103434,2.340816],[44.109136,2.604534],[44.05213,2.71929],[44.055274,2.851232],[43.922716,3.075446],[43.9,3.2],[43.817413,3.310453],[43.729684,3.581699],[43.605762,3.665284],[43.541732,3.787799],[43.337611,3.98339],[43.25,4.2],[43.138854,4.314943],[42.997571,4.383309],[42.860824,4.387007],[42.339237,4.802701],[42.059898,4.892708],[41.889609,5.137202],[41.388433,5.468598],[41.224211,5.782189],[41.137432,5.836123],[41.033534,6.00632],[40.785078,6.178754],[40.7,6.3],[40.250903,6.592011],[39.446928,6.980976],[39.15,7.18],[37.1,7.78],[34.8,7.85],[34.453644,7.746124],[33.851827,7.688414],[33.621991,7.614144],[33.264493,7.562631],[32.056975,7.220933],[31.767014,7.112716],[31.596769,6.985799],[31.402708,6.915442],[30.945419,6.673381],[30.55,6.55],[30.365131,6.078636],[30.307447,5.776204],[29.879645,4.746973],[29.715075,3.957224],[29.559914,3.581368],[29.429633,3.095222],[29.35,2.7],[29.324003,2.359966],[29.198124,1.80425],[29.108051,0.78576],[29.05,0.45]]],[[[44.154317,4.98769],[44.389145,4.56254],[44.464273,4.525842],[44.573688,4.383483],[44.68462,4.397469],[44.71424,4.520142],[44.775842,4.611839],[44.750403,4.86913],[44.789121,4.989436],[44.675926,5.221207],[44.543578,5.356376],[44.382888,5.278591],[44.270227,5.3074],[44.180553,5.144565],[44.154317,4.98769]]],[[[44.455463,4.040771],[44.522512,3.717895],[44.601423,3.682088],[44.696144,3.761274],[44.792122,3.923986],[44.761194,4.123361],[44.596385,4.191075],[44.498431,4.121001],[44.455463,4.040771]]],[[[44.255502,-1.772299],[44.26468,-1.876934],[44.49256,-2.11904],[44.567038,-2.137067],[44.657407,-2.211169],[44.756859,-2.173147],[44.805229,-2.004988],[44.762417,-1.829948],[44.780636,-1.724003],[44.668774,-1.58594],[44.53,-1.513032],[44.449339,-1.582979],[44.304921,-1.60446],[44.255502,-1.772299]]],[[[44.17739,-4.074405],[44.250786,-4.244473],[44.29751,-4.246829],[44.405435,-4.177865],[44.555616,-3.967017],[44.508592,-3.739941],[44.438031,-3.742368],[44.355719,-3.675357],[44.245956,-3.732559],[44.177511,-3.837026],[44.17739,-4.074405]]],[[[43.169363,-5.51584],[43.296156,-5.694992],[43.485752,-5.770751],[43.687486,-5.68299],[43.83598,-5.493548],[43.672352,-5.366409],[43.385387,-5.37276],[43.220781,-5.453968],[43.169363,-5.51584]]]]}}]}
