{"type":"FeatureCollection","novegeoDerivativeContract":"public-boundary-derivative:novegeo:v001","features":[{"type":"Feature","properties":{"derivativeId":"derivative:novegeo:sovereign:v002:standard:v001","derivativeVersion":1,"resolutionClass":"standard","sourceBoundaryId":"boundary:novegeo:sovereign","sourceBoundaryVersion":2,"sourceQualificationId":"qualification:novegeo:world-boundary:v002","sourceQualificationReceiptSha256":"f1795df86bda514e88d714e4d7300c23443b4d55d637b9c7a73b8aacd0b50561","datasetId":"dataset:novegeo:world-boundary","datasetVersion":2,"coordinateReferenceId":"crs:novegeo:geographic","coordinateReferenceVersion":1,"runtimeMode":"shared_reference","visibility":"public","lifecycleStatus":"derivative_candidate","simplificationAlgorithmId":"simplification:novegeo:closed-ring-rdp:v001","simplificationAlgorithmVersion":1,"simplificationToleranceDegrees":0.005,"coordinatePrecisionDecimalPlaces":6,"sourceVertexCount":1048,"derivativeVertexCount":493,"polygonCount":6,"offshoreIslandCount":5,"sourceGeometrySha256":"57edd38c08b00b9ff9a280fedea61ba6ddfc9d164e288c1ef9fd32eb2af94a19","derivativeGeometrySha256":"50cadc25961324b45b682425625ad0841cce6e008b9c997274c198c2144740b4","extent":{"minLongitude":29.05,"minLatitude":-7.717467,"maxLongitude":44.805229,"maxLatitude":7.85},"runtimePublicationDeferredTo":"P004.M1.5","contentSha256":"a86d2f9ff56287a7237ee1877ea6dfce2d9ab1a2b22f9874842178a67aa68450"},"geometry":{"type":"MultiPolygon","coordinates":[[[[29.05,0.45],[29.06425,0.204954],[29.053652,-0.041613],[29.061687,-0.28704],[29.072613,-0.40933],[29.125808,-0.651991],[29.133081,-0.897464],[29.149286,-1.019431],[29.166667,-1.264286],[29.199681,-1.508183],[29.194681,-1.877366],[29.222622,-2.221969],[29.236574,-2.332534],[29.2816,-2.550939],[29.312338,-2.658833],[29.354301,-2.764941],[29.381929,-2.873329],[29.397791,-3.096374],[29.415413,-3.206355],[29.43525,-3.428767],[29.478163,-3.647508],[29.489232,-3.871315],[29.506481,-3.981355],[29.55,-4.2],[29.578961,-4.287856],[29.684892,-4.544894],[29.768843,-4.711682],[29.793308,-4.80108],[29.818431,-4.988038],[29.887509,-5.257711],[29.929485,-5.341105],[29.962067,-5.42772],[30.010907,-5.606546],[30.15,-5.95],[30.444299,-6.090915],[30.648697,-6.165566],[30.863958,-6.214657],[30.966931,-6.250163],[31.061767,-6.304812],[31.452459,-6.496715],[31.65525,-6.575148],[31.846125,-6.681617],[32.04735,-6.763735],[32.15,-6.8],[32.570129,-6.909801],[33.540757,-7.200302],[34.1,-7.35],[34.386416,-7.39599],[34.812789,-7.483554],[35.81515,-7.645061],[36.1,-7.7],[36.310108,-7.699556],[36.520654,-7.717467],[36.730725,-7.715442],[36.835505,-7.703703],[36.93992,-7.676656],[37.044626,-7.6618],[37.254802,-7.664172],[37.359618,-7.653941],[37.569634,-7.649648],[37.779319,-7.631383],[37.989887,-7.650256],[38.2,-7.65],[38.42561,-7.616549],[38.497938,-7.59447],[38.708503,-7.503848],[38.837649,-7.400759],[38.907586,-7.369594],[39.063968,-7.37],[39.212726,-7.341435],[39.367056,-7.334043],[39.440362,-7.315685],[39.510026,-7.283482],[39.582281,-7.261129],[39.738517,-7.260979],[39.813871,-7.2504],[40.029911,-7.180584],[40.1,-7.15],[40.207068,-7.076989],[40.35004,-6.937399],[40.473936,-6.893094],[40.592105,-6.839021],[40.72002,-6.801572],[40.77808,-6.772787],[40.877437,-6.686623],[41.076382,-6.642516],[41.244029,-6.545019],[41.295439,-6.504889],[41.384314,-6.400843],[41.435867,-6.360959],[41.55,-6.3],[41.660297,-6.161428],[41.707409,-6.126077],[41.821016,-6.075679],[42.019754,-5.945053],[42.07596,-5.834522],[42.113027,-5.788647],[42.21492,-5.725978],[42.363417,-5.542719],[42.419726,-5.432295],[42.4546,-5.384123],[42.65,-5.25],[42.714863,-5.171764],[42.841391,-5.076683],[42.903947,-4.996688],[42.933387,-4.955291],[42.949416,-4.903676],[42.962725,-4.786161],[43.064693,-4.672367],[43.115599,-4.583497],[43.181532,-4.506076],[43.223852,-4.410664],[43.261284,-4.375355],[43.351139,-4.316161],[43.38736,-4.27993],[43.534868,-4.093998],[43.584445,-3.966821],[43.594727,-3.920682],[43.593346,-3.815238],[43.613142,-3.774808],[43.69276,-3.717964],[43.748224,-3.646627],[43.819642,-3.584862],[43.876571,-3.462097],[43.951619,-3.40251],[43.978542,-3.366356],[44.05,-3.2],[44.017778,-3.137843],[43.96606,-3.082567],[43.948031,-3.052166],[43.948637,-2.978422],[43.937362,-2.908872],[43.942126,-2.833661],[43.93086,-2.800873],[43.889484,-2.741947],[43.904252,-2.663205],[43.901946,-2.627254],[43.86327,-2.530611],[43.841843,-2.501408],[43.782461,-2.448837],[43.766615,-2.417665],[43.75,-2.35],[43.688205,-2.265513],[43.681293,-2.230507],[43.683346,-2.152558],[43.663408,-2.047142],[43.649298,-2.015736],[43.581889,-1.972517],[43.563037,-1.943482],[43.549093,-1.873531],[43.500317,-1.820995],[43.462076,-1.763193],[43.399153,-1.717731],[43.378841,-1.689425],[43.35,-1.55],[43.389803,-1.499489],[43.449097,-1.461507],[43.471209,-1.437673],[43.517785,-1.353466],[43.508264,-1.233197],[43.55495,-1.187111],[43.582131,-1.128485],[43.623106,-1.078727],[43.657769,-0.986862],[43.745214,-0.928929],[43.766466,-0.904542],[43.83391,-0.78438],[43.847639,-0.750495],[43.858661,-0.638785],[43.831394,-0.514311],[43.845732,-0.480629],[43.907018,-0.424134],[43.942282,-0.358966],[43.992149,-0.298665],[43.999276,-0.224118],[44.013333,-0.190342],[44.065384,-0.130769],[44.078159,-0.096566],[44.1,0.05],[44.05017,0.080187],[43.988874,0.097761],[43.9659,0.11499],[43.942043,0.173747],[43.908905,0.222295],[43.885911,0.282002],[43.808784,0.324662],[43.792012,0.391214],[43.774262,0.414188],[43.70521,0.465731],[43.608774,0.487151],[43.513506,0.586217],[43.499061,0.606745],[43.496842,0.694494],[43.477332,0.771239],[43.460921,0.790516],[43.398669,0.810342],[43.384395,0.830979],[43.369374,0.880861],[43.325648,0.912475],[43.29225,0.950662],[43.237641,0.975352],[43.223076,0.995804],[43.2,1.1],[43.243831,1.128649],[43.299992,1.143599],[43.356713,1.196601],[43.370671,1.219768],[43.372512,1.295072],[43.381858,1.323363],[43.431791,1.345232],[43.465036,1.385644],[43.511191,1.411711],[43.55715,1.476671],[43.642699,1.497643],[43.745727,1.590099],[43.764844,1.613271],[43.802472,1.699222],[43.814935,1.806144],[43.841139,1.82341],[43.91068,1.843664],[44.018866,1.90992],[44.042967,1.96804],[44.066035,1.98792],[44.124993,2.016993],[44.143143,2.04097],[44.2,2.15],[44.163752,2.227006],[44.113603,2.30004],[44.103434,2.340816],[44.111108,2.430372],[44.103968,2.515694],[44.109136,2.604534],[44.063037,2.678725],[44.05213,2.71929],[44.06592,2.810593],[44.055274,2.851232],[44.008324,2.968862],[43.922716,3.075446],[43.9,3.2],[43.817413,3.310453],[43.78512,3.453597],[43.729684,3.581699],[43.696617,3.614916],[43.605762,3.665284],[43.567315,3.749717],[43.541732,3.787799],[43.473562,3.852911],[43.416319,3.925126],[43.337611,3.98339],[43.315055,4.02344],[43.288313,4.115481],[43.25,4.2],[43.19035,4.25117],[43.138854,4.314943],[43.036893,4.372401],[42.997571,4.383309],[42.899282,4.374765],[42.860824,4.387007],[42.806998,4.447178],[42.738152,4.484138],[42.681457,4.539874],[42.606952,4.568087],[42.574676,4.589884],[42.528629,4.662078],[42.500605,4.690446],[42.4,4.75],[42.339237,4.802701],[42.305088,4.823715],[42.190199,4.869129],[42.09887,4.878528],[42.059898,4.892708],[41.995857,5.010157],[41.889609,5.137202],[41.811713,5.165631],[41.731996,5.260872],[41.55,5.35],[41.473033,5.412714],[41.388433,5.468598],[41.360133,5.509066],[41.32056,5.605238],[41.224211,5.782189],[41.137432,5.836123],[41.107602,5.875223],[41.068673,5.971971],[41.033534,6.00632],[40.922994,6.104784],[40.825466,6.149101],[40.785078,6.178754],[40.7,6.3],[40.542985,6.384451],[40.40045,6.494407],[40.250903,6.592011],[40.174926,6.638694],[40.003279,6.697371],[39.851742,6.791471],[39.612408,6.911434],[39.446928,6.980976],[39.15,7.18],[38.712032,7.313073],[38.268743,7.427967],[37.1,7.78],[36.27821,7.793133],[35.785836,7.823993],[34.8,7.85],[34.453644,7.746124],[33.851827,7.688414],[33.621991,7.614144],[33.38128,7.590984],[33.264493,7.562631],[33.03185,7.501553],[32.805139,7.412595],[32.688232,7.384807],[32.45,7.35],[32.260935,7.267781],[32.056975,7.220933],[31.767014,7.112716],[31.596769,6.985799],[31.402708,6.915442],[31.21959,6.819099],[31.124636,6.778989],[30.945419,6.673381],[30.745041,6.618027],[30.55,6.55],[30.427635,6.271398],[30.365131,6.078636],[30.340529,5.979805],[30.307447,5.776204],[30.221406,5.592114],[30.187802,5.496599],[30.10479,5.311393],[30.043568,5.118159],[29.949986,4.936847],[29.879645,4.746973],[29.799768,4.45506],[29.763901,4.256436],[29.740941,4.054502],[29.715075,3.957224],[29.628795,3.771527],[29.559914,3.581368],[29.529131,3.485351],[29.494105,3.286512],[29.429633,3.095222],[29.35,2.7],[29.324003,2.359966],[29.198124,1.80425],[29.188923,1.576477],[29.140214,1.353971],[29.109234,1.014602],[29.108051,0.78576],[29.05,0.45]]],[[[44.154317,4.98769],[44.161746,4.941701],[44.186031,4.896158],[44.275414,4.79267],[44.299366,4.723083],[44.389145,4.56254],[44.464273,4.525842],[44.542608,4.408488],[44.573688,4.383483],[44.632704,4.375755],[44.660677,4.380575],[44.68462,4.397469],[44.700122,4.432753],[44.71424,4.520142],[44.728211,4.544717],[44.767915,4.578803],[44.775842,4.611839],[44.766044,4.764953],[44.750403,4.86913],[44.789121,4.989436],[44.784156,5.035799],[44.766226,5.077392],[44.701579,5.190467],[44.675926,5.221207],[44.62041,5.266548],[44.571297,5.332014],[44.543578,5.356376],[44.514276,5.356274],[44.443829,5.293732],[44.382888,5.278591],[44.361261,5.277644],[44.300747,5.303899],[44.270227,5.3074],[44.250353,5.288656],[44.233507,5.219493],[44.219159,5.193384],[44.180553,5.144565],[44.154317,4.98769]]],[[[44.455463,4.040771],[44.475715,3.971807],[44.48311,3.815743],[44.51145,3.784778],[44.522512,3.717895],[44.536855,3.692974],[44.556957,3.681686],[44.578546,3.675717],[44.601423,3.682088],[44.641516,3.73035],[44.68007,3.7421],[44.696144,3.761274],[44.74551,3.880759],[44.792122,3.923986],[44.801545,3.955477],[44.796421,4.017863],[44.761194,4.123361],[44.750222,4.148209],[44.72746,4.153137],[44.682222,4.142349],[44.650277,4.150327],[44.596385,4.191075],[44.498431,4.121001],[44.464486,4.072504],[44.455463,4.040771]]],[[[44.255502,-1.772299],[44.26468,-1.876934],[44.288358,-1.909974],[44.381757,-1.974907],[44.411578,-2.026556],[44.49256,-2.11904],[44.567038,-2.137067],[44.624824,-2.191748],[44.657407,-2.211169],[44.713457,-2.205858],[44.738171,-2.194446],[44.756859,-2.173147],[44.767316,-2.067726],[44.79908,-2.031639],[44.805229,-2.004988],[44.78146,-1.884534],[44.762417,-1.829948],[44.780636,-1.724003],[44.769014,-1.687399],[44.668774,-1.58594],[44.611365,-1.562574],[44.558202,-1.522807],[44.53,-1.513032],[44.504618,-1.52612],[44.467715,-1.573308],[44.449339,-1.582979],[44.391131,-1.601821],[44.329176,-1.593576],[44.304921,-1.60446],[44.293985,-1.663304],[44.258795,-1.740238],[44.255502,-1.772299]]],[[[44.17739,-4.074405],[44.209894,-4.135573],[44.21538,-4.209101],[44.230166,-4.232644],[44.250786,-4.244473],[44.273011,-4.251512],[44.29751,-4.246829],[44.344822,-4.198625],[44.405435,-4.177865],[44.472137,-4.060041],[44.542192,-3.999075],[44.555616,-3.967017],[44.554179,-3.869494],[44.533397,-3.817821],[44.522885,-3.760143],[44.508592,-3.739941],[44.438031,-3.742368],[44.391214,-3.716934],[44.355719,-3.675357],[44.333519,-3.67861],[44.292408,-3.713269],[44.245956,-3.732559],[44.187027,-3.803168],[44.177511,-3.837026],[44.194043,-3.937093],[44.182473,-3.989817],[44.17739,-4.074405]]],[[[43.169363,-5.51584],[43.174822,-5.539],[43.246213,-5.592642],[43.251044,-5.627816],[43.279042,-5.679836],[43.296156,-5.694992],[43.352134,-5.707508],[43.416191,-5.763529],[43.485752,-5.770751],[43.556217,-5.757598],[43.62896,-5.699209],[43.687486,-5.68299],[43.738128,-5.610944],[43.748869,-5.575712],[43.82963,-5.516927],[43.83598,-5.493548],[43.791455,-5.435329],[43.714431,-5.397478],[43.672352,-5.366409],[43.637753,-5.36467],[43.564595,-5.385423],[43.483912,-5.389653],[43.385387,-5.37276],[43.35148,-5.37816],[43.305886,-5.412308],[43.220781,-5.453968],[43.169363,-5.51584]]]]}}]}
