{
  "type": "FeatureCollection",
  "features": [
    {
      "type": "Feature",
      "properties": {
        "datasetId": "dataset:novegeo:world-boundary",
        "datasetVersion": 2,
        "boundaryId": "boundary:novegeo:sovereign",
        "boundaryVersion": 2,
        "supersedesBoundaryVersion": 1,
        "sourcePackageId": "source-package:novegeo:world-boundary:v002",
        "authoringContractId": "boundary-authoring-contract:novegeo:sovereign:v001",
        "designBriefId": "design-brief:novegeo:sovereign:v002",
        "coordinateReferenceId": "crs:novegeo:geographic",
        "coordinateReferenceVersion": 1,
        "runtimeMode": "shared_reference",
        "visibility": "public",
        "lifecycleStatus": "candidate",
        "resolutionClass": "authoritative_source_candidate",
        "authoringMethod": "deterministic_project_authored_piecewise_boundary_design"
      },
      "geometry": {
        "type": "MultiPolygon",
        "coordinates": [
          [
            [
              [
                30.15,
                -5.95
              ],
              [
                30.116022,
                -5.863864
              ],
              [
                30.080676,
                -5.778197
              ],
              [
                30.046741,
                -5.692046
              ],
              [
                30.010907,
                -5.606546
              ],
              [
                29.982559,
                -5.51848
              ],
              [
                29.962067,
                -5.42772
              ],
              [
                29.929485,
                -5.341105
              ],
              [
                29.887509,
                -5.257711
              ],
              [
                29.859876,
                -5.1694
              ],
              [
                29.841894,
                -5.077779
              ],
              [
                29.818431,
                -4.988038
              ],
              [
                29.801493,
                -4.896059
              ],
              [
                29.793308,
                -4.80108
              ],
              [
                29.768843,
                -4.711682
              ],
              [
                29.725547,
                -4.628741
              ],
              [
                29.684892,
                -4.544894
              ],
              [
                29.64907,
                -4.45939
              ],
              [
                29.611718,
                -4.374411
              ],
              [
                29.578961,
                -4.287856
              ],
              [
                29.55,
                -4.2
              ],
              [
                29.526143,
                -4.091011
              ],
              [
                29.506481,
                -3.981355
              ],
              [
                29.489232,
                -3.871315
              ],
              [
                29.481516,
                -3.759759
              ],
              [
                29.478163,
                -3.647508
              ],
              [
                29.460047,
                -3.537606
              ],
              [
                29.43525,
                -3.428767
              ],
              [
                29.424154,
                -3.317748
              ],
              [
                29.415413,
                -3.206355
              ],
              [
                29.397791,
                -3.096374
              ],
              [
                29.387755,
                -2.985187
              ],
              [
                29.381929,
                -2.873329
              ],
              [
                29.354301,
                -2.764941
              ],
              [
                29.312338,
                -2.658833
              ],
              [
                29.2816,
                -2.550939
              ],
              [
                29.258946,
                -2.441759
              ],
              [
                29.236574,
                -2.332534
              ],
              [
                29.222622,
                -2.221969
              ],
              [
                29.213766,
                -2.110594
              ],
              [
                29.2,
                -2.0
              ],
              [
                29.194681,
                -1.877366
              ],
              [
                29.192774,
                -1.754524
              ],
              [
                29.19722,
                -1.631293
              ],
              [
                29.199681,
                -1.508183
              ],
              [
                29.185387,
                -1.386099
              ],
              [
                29.166667,
                -1.264286
              ],
              [
                29.159156,
                -1.141786
              ],
              [
                29.149286,
                -1.019431
              ],
              [
                29.133081,
                -0.897464
              ],
              [
                29.12854,
                -0.774783
              ],
              [
                29.125808,
                -0.651991
              ],
              [
                29.101703,
                -0.530508
              ],
              [
                29.072613,
                -0.40933
              ],
              [
                29.061687,
                -0.28704
              ],
              [
                29.057966,
                -0.164308
              ],
              [
                29.053652,
                -0.041613
              ],
              [
                29.058173,
                0.081623
              ],
              [
                29.06425,
                0.204954
              ],
              [
                29.059406,
                0.327617
              ],
              [
                29.05,
                0.45
              ],
              [
                29.07065,
                0.561747
              ],
              [
                29.092496,
                0.673334
              ],
              [
                29.108051,
                0.78576
              ],
              [
                29.108681,
                0.900176
              ],
              [
                29.109234,
                1.014602
              ],
              [
                29.120768,
                1.127564
              ],
              [
                29.130349,
                1.240787
              ],
              [
                29.140214,
                1.353971
              ],
              [
                29.165349,
                1.46512
              ],
              [
                29.188923,
                1.576477
              ],
              [
                29.192418,
                1.690511
              ],
              [
                29.198124,
                1.80425
              ],
              [
                29.222416,
                1.915511
              ],
              [
                29.247709,
                2.026639
              ],
              [
                29.26946,
                2.138239
              ],
              [
                29.298564,
                2.248858
              ],
              [
                29.324003,
                2.359966
              ],
              [
                29.33407,
                2.473124
              ],
              [
                29.340232,
                2.586802
              ],
              [
                29.35,
                2.7
              ],
              [
                29.369816,
                2.798829
              ],
              [
                29.389276,
                2.89775
              ],
              [
                29.409939,
                2.996362
              ],
              [
                29.429633,
                3.095222
              ],
              [
                29.458853,
                3.19164
              ],
              [
                29.494105,
                3.286512
              ],
              [
                29.514863,
                3.385099
              ],
              [
                29.529131,
                3.485351
              ],
              [
                29.559914,
                3.581368
              ],
              [
                29.597418,
                3.675662
              ],
              [
                29.628795,
                3.771527
              ],
              [
                29.66889,
                3.865156
              ],
              [
                29.715075,
                3.957224
              ],
              [
                29.740941,
                4.054502
              ],
              [
                29.749733,
                4.156158
              ],
              [
                29.763901,
                4.256436
              ],
              [
                29.78238,
                4.355608
              ],
              [
                29.799768,
                4.45506
              ],
              [
                29.82321,
                4.552959
              ],
              [
                29.85,
                4.65
              ],
              [
                29.879645,
                4.746973
              ],
              [
                29.913326,
                4.842459
              ],
              [
                29.949986,
                4.936847
              ],
              [
                29.996087,
                5.027758
              ],
              [
                30.043568,
                5.118159
              ],
              [
                30.075874,
                5.214152
              ],
              [
                30.10479,
                5.311393
              ],
              [
                30.146746,
                5.40383
              ],
              [
                30.187802,
                5.496599
              ],
              [
                30.221406,
                5.592114
              ],
              [
                30.264022,
                5.684308
              ],
              [
                30.307447,
                5.776204
              ],
              [
                30.32871,
                5.876265
              ],
              [
                30.340529,
                5.979805
              ],
              [
                30.365131,
                6.078636
              ],
              [
                30.395981,
                6.175165
              ],
              [
                30.427635,
                6.271398
              ],
              [
                30.468101,
                6.364384
              ],
              [
                30.511777,
                6.456187
              ],
              [
                30.55,
                6.55
              ],
              [
                30.646646,
                6.586091
              ],
              [
                30.745041,
                6.618027
              ],
              [
                30.84649,
                6.642711
              ],
              [
                30.945419,
                6.673381
              ],
              [
                31.035378,
                6.725352
              ],
              [
                31.124636,
                6.778989
              ],
              [
                31.21959,
                6.819099
              ],
              [
                31.312169,
                6.864848
              ],
              [
                31.402708,
                6.915442
              ],
              [
                31.500215,
                6.94949
              ],
              [
                31.596769,
                6.985799
              ],
              [
                31.681939,
                7.049144
              ],
              [
                31.767014,
                7.112716
              ],
              [
                31.862046,
                7.15264
              ],
              [
                31.959524,
                7.186756
              ],
              [
                32.056975,
                7.220933
              ],
              [
                32.159239,
                7.243681
              ],
              [
                32.260935,
                7.267781
              ],
              [
                32.356411,
                7.306649
              ],
              [
                32.45,
                7.35
              ],
              [
                32.569035,
                7.367785
              ],
              [
                32.688232,
                7.384807
              ],
              [
                32.805139,
                7.412595
              ],
              [
                32.918073,
                7.459057
              ],
              [
                33.03185,
                7.501553
              ],
              [
                33.148595,
                7.530105
              ],
              [
                33.264493,
                7.562631
              ],
              [
                33.38128,
                7.590984
              ],
              [
                33.502446,
                7.598753
              ],
              [
                33.621991,
                7.614144
              ],
              [
                33.736005,
                7.655526
              ],
              [
                33.851827,
                7.688414
              ],
              [
                33.972592,
                7.698069
              ],
              [
                34.092794,
                7.71037
              ],
              [
                34.212301,
                7.725934
              ],
              [
                34.333898,
                7.731677
              ],
              [
                34.453644,
                7.746124
              ],
              [
                34.56904,
                7.78101
              ],
              [
                34.683938,
                7.818241
              ],
              [
                34.8,
                7.85
              ],
              [
                34.964361,
                7.847463
              ],
              [
                35.1287,
                7.844223
              ],
              [
                35.293023,
                7.840434
              ],
              [
                35.457185,
                7.83138
              ],
              [
                35.621518,
                7.82795
              ],
              [
                35.785836,
                7.823993
              ],
              [
                35.949974,
                7.814146
              ],
              [
                36.114165,
                7.806023
              ],
              [
                36.27821,
                7.793133
              ],
              [
                36.442559,
                7.790212
              ],
              [
                36.607026,
                7.791145
              ],
              [
                36.771398,
                7.78898
              ],
              [
                36.935743,
                7.785932
              ],
              [
                37.1,
                7.78
              ],
              [
                37.246837,
                7.738538
              ],
              [
                37.393089,
                7.695079
              ],
              [
                37.538065,
                7.647259
              ],
              [
                37.684123,
                7.603133
              ],
              [
                37.831136,
                7.562275
              ],
              [
                37.976725,
                7.51655
              ],
              [
                38.123333,
                7.474303
              ],
              [
                38.268743,
                7.427967
              ],
              [
                38.41622,
                7.388694
              ],
              [
                38.565058,
                7.354068
              ],
              [
                38.712032,
                7.313073
              ],
              [
                38.85866,
                7.270899
              ],
              [
                39.004048,
                7.224487
              ],
              [
                39.15,
                7.18
              ],
              [
                39.225637,
                7.132718
              ],
              [
                39.299758,
                7.082766
              ],
              [
                39.371573,
                7.028753
              ],
              [
                39.446928,
                6.980976
              ],
              [
                39.53007,
                6.946912
              ],
              [
                39.612408,
                6.911434
              ],
              [
                39.690123,
                6.867813
              ],
              [
                39.770719,
                6.829266
              ],
              [
                39.851742,
                6.791471
              ],
              [
                39.926188,
                6.742093
              ],
              [
                40.003279,
                6.697371
              ],
              [
                40.090174,
                6.66992
              ],
              [
                40.174926,
                6.638694
              ],
              [
                40.250903,
                6.592011
              ],
              [
                40.325873,
                6.543555
              ],
              [
                40.40045,
                6.494407
              ],
              [
                40.470813,
                6.437836
              ],
              [
                40.542985,
                6.384451
              ],
              [
                40.620903,
                6.341187
              ],
              [
                40.7,
                6.3
              ],
              [
                40.727761,
                6.25905
              ],
              [
                40.755049,
                6.217676
              ],
              [
                40.785078,
                6.178754
              ],
              [
                40.825466,
                6.149101
              ],
              [
                40.875475,
                6.128057
              ],
              [
                40.922994,
                6.104784
              ],
              [
                40.960554,
                6.072601
              ],
              [
                40.995055,
                6.037681
              ],
              [
                41.033534,
                6.00632
              ],
              [
                41.068673,
                5.971971
              ],
              [
                41.090739,
                5.925924
              ],
              [
                41.107602,
                5.875223
              ],
              [
                41.137432,
                5.836123
              ],
              [
                41.182306,
                5.810484
              ],
              [
                41.224211,
                5.782189
              ],
              [
                41.250533,
                5.739951
              ],
              [
                41.269502,
                5.691134
              ],
              [
                41.293624,
                5.646926
              ],
              [
                41.32056,
                5.605238
              ],
              [
                41.341583,
                5.558258
              ],
              [
                41.360133,
                5.509066
              ],
              [
                41.388433,
                5.468598
              ],
              [
                41.429204,
                5.439288
              ],
              [
                41.473033,
                5.412714
              ],
              [
                41.512879,
                5.382576
              ],
              [
                41.55,
                5.35
              ],
              [
                41.587625,
                5.333911
              ],
              [
                41.625114,
                5.31763
              ],
              [
                41.660836,
                5.298844
              ],
              [
                41.69702,
                5.280714
              ],
              [
                41.731996,
                5.260872
              ],
              [
                41.760293,
                5.23157
              ],
              [
                41.783403,
                5.194917
              ],
              [
                41.811713,
                5.165631
              ],
              [
                41.850207,
                5.150775
              ],
              [
                41.889609,
                5.137202
              ],
              [
                41.91904,
                5.109506
              ],
              [
                41.941404,
                5.071796
              ],
              [
                41.966934,
                5.038574
              ],
              [
                41.995857,
                5.010157
              ],
              [
                42.01917,
                4.973792
              ],
              [
                42.036304,
                4.928674
              ],
              [
                42.059898,
                4.892708
              ],
              [
                42.09887,
                4.878528
              ],
              [
                42.146306,
                4.876338
              ],
              [
                42.190199,
                4.869129
              ],
              [
                42.228612,
                4.854156
              ],
              [
                42.266772,
                4.838825
              ],
              [
                42.305088,
                4.823715
              ],
              [
                42.339237,
                4.802701
              ],
              [
                42.36932,
                4.775928
              ],
              [
                42.4,
                4.75
              ],
              [
                42.435835,
                4.733703
              ],
              [
                42.468919,
                4.713155
              ],
              [
                42.500605,
                4.690446
              ],
              [
                42.528629,
                4.662078
              ],
              [
                42.551302,
                4.625439
              ],
              [
                42.574676,
                4.589884
              ],
              [
                42.606952,
                4.568087
              ],
              [
                42.646064,
                4.556853
              ],
              [
                42.681457,
                4.539874
              ],
              [
                42.709508,
                4.511548
              ],
              [
                42.738152,
                4.484138
              ],
              [
                42.7728,
                4.466005
              ],
              [
                42.806998,
                4.447178
              ],
              [
                42.8341,
                4.417386
              ],
              [
                42.860824,
                4.387007
              ],
              [
                42.899282,
                4.374765
              ],
              [
                42.949098,
                4.380074
              ],
              [
                42.997571,
                4.383309
              ],
              [
                43.036893,
                4.372401
              ],
              [
                43.071388,
                4.354034
              ],
              [
                43.10626,
                4.336248
              ],
              [
                43.138854,
                4.314943
              ],
              [
                43.165663,
                4.284696
              ],
              [
                43.19035,
                4.25117
              ],
              [
                43.218591,
                4.223137
              ],
              [
                43.25,
                4.2
              ],
              [
                43.270159,
                4.158392
              ],
              [
                43.288313,
                4.115481
              ],
              [
                43.30239,
                4.069919
              ],
              [
                43.315055,
                4.02344
              ],
              [
                43.337611,
                3.98339
              ],
              [
                43.37521,
                3.953118
              ],
              [
                43.416319,
                3.925126
              ],
              [
                43.447771,
                3.890859
              ],
              [
                43.473562,
                3.852911
              ],
              [
                43.505742,
                3.819117
              ],
              [
                43.541732,
                3.787799
              ],
              [
                43.567315,
                3.749717
              ],
              [
                43.582331,
                3.704765
              ],
              [
                43.605762,
                3.665284
              ],
              [
                43.64865,
                3.638449
              ],
              [
                43.696617,
                3.614916
              ],
              [
                43.729684,
                3.581699
              ],
              [
                43.748056,
                3.538929
              ],
              [
                43.76542,
                3.495504
              ],
              [
                43.78512,
                3.453597
              ],
              [
                43.798815,
                3.407787
              ],
              [
                43.805743,
                3.357579
              ],
              [
                43.817413,
                3.310453
              ],
              [
                43.840998,
                3.271072
              ],
              [
                43.870826,
                3.235748
              ],
              [
                43.9,
                3.2
              ],
              [
                43.906056,
                3.158049
              ],
              [
                43.911933,
                3.116047
              ],
              [
                43.922716,
                3.075446
              ],
              [
                43.946909,
                3.038677
              ],
              [
                43.980634,
                3.004632
              ],
              [
                44.008324,
                2.968862
              ],
              [
                44.02382,
                2.929608
              ],
              [
                44.037438,
                2.889818
              ],
              [
                44.055274,
                2.851232
              ],
              [
                44.06592,
                2.810593
              ],
              [
                44.060182,
                2.765272
              ],
              [
                44.05213,
                2.71929
              ],
              [
                44.063037,
                2.678725
              ],
              [
                44.090011,
                2.64275
              ],
              [
                44.109136,
                2.604534
              ],
              [
                44.109221,
                2.560876
              ],
              [
                44.103968,
                2.515694
              ],
              [
                44.10668,
                2.472788
              ],
              [
                44.111108,
                2.430372
              ],
              [
                44.107538,
                2.38567
              ],
              [
                44.103434,
                2.340816
              ],
              [
                44.113603,
                2.30004
              ],
              [
                44.138054,
                2.263345
              ],
              [
                44.163752,
                2.227006
              ],
              [
                44.183552,
                2.188982
              ],
              [
                44.2,
                2.15
              ],
              [
                44.18755,
                2.121272
              ],
              [
                44.174043,
                2.093426
              ],
              [
                44.158394,
                2.067364
              ],
              [
                44.143143,
                2.04097
              ],
              [
                44.124993,
                2.016993
              ],
              [
                44.097825,
                2.00053
              ],
              [
                44.066035,
                1.98792
              ],
              [
                44.042967,
                1.96804
              ],
              [
                44.03179,
                1.938252
              ],
              [
                44.018866,
                1.90992
              ],
              [
                43.992912,
                1.892445
              ],
              [
                43.960736,
                1.880156
              ],
              [
                43.934285,
                1.863096
              ],
              [
                43.91068,
                1.843664
              ],
              [
                43.878725,
                1.831191
              ],
              [
                43.841139,
                1.82341
              ],
              [
                43.814935,
                1.806144
              ],
              [
                43.807997,
                1.772823
              ],
              [
                43.808528,
                1.733278
              ],
              [
                43.802472,
                1.699222
              ],
              [
                43.790012,
                1.670503
              ],
              [
                43.777819,
                1.641561
              ],
              [
                43.764844,
                1.613271
              ],
              [
                43.745727,
                1.590099
              ],
              [
                43.72209,
                1.570694
              ],
              [
                43.7,
                1.55
              ],
              [
                43.683504,
                1.529654
              ],
              [
                43.663998,
                1.512652
              ],
              [
                43.642699,
                1.497643
              ],
              [
                43.616731,
                1.487821
              ],
              [
                43.58549,
                1.483857
              ],
              [
                43.55715,
                1.476671
              ],
              [
                43.539721,
                1.457361
              ],
              [
                43.528352,
                1.431319
              ],
              [
                43.511191,
                1.411711
              ],
              [
                43.486785,
                1.400154
              ],
              [
                43.465036,
                1.385644
              ],
              [
                43.449702,
                1.364007
              ],
              [
                43.431791,
                1.345232
              ],
              [
                43.405787,
                1.33545
              ],
              [
                43.381858,
                1.323363
              ],
              [
                43.372512,
                1.295072
              ],
              [
                43.373839,
                1.254922
              ],
              [
                43.370671,
                1.219768
              ],
              [
                43.356713,
                1.196601
              ],
              [
                43.338586,
                1.178066
              ],
              [
                43.321071,
                1.158853
              ],
              [
                43.299992,
                1.143599
              ],
              [
                43.272403,
                1.135578
              ],
              [
                43.243831,
                1.128649
              ],
              [
                43.220225,
                1.116203
              ],
              [
                43.2,
                1.1
              ],
              [
                43.208541,
                1.075715
              ],
              [
                43.215459,
                1.050397
              ],
              [
                43.219037,
                1.022954
              ],
              [
                43.223076,
                0.995804
              ],
              [
                43.237641,
                0.975352
              ],
              [
                43.264697,
                0.962849
              ],
              [
                43.29225,
                0.950662
              ],
              [
                43.310545,
                0.932584
              ],
              [
                43.325648,
                0.912475
              ],
              [
                43.347031,
                0.896362
              ],
              [
                43.369374,
                0.880861
              ],
              [
                43.380602,
                0.858285
              ],
              [
                43.384395,
                0.830979
              ],
              [
                43.398669,
                0.810342
              ],
              [
                43.429461,
                0.800217
              ],
              [
                43.460921,
                0.790516
              ],
              [
                43.477332,
                0.771239
              ],
              [
                43.482608,
                0.744876
              ],
              [
                43.488971,
                0.719206
              ],
              [
                43.496842,
                0.694494
              ],
              [
                43.498496,
                0.665826
              ],
              [
                43.495548,
                0.63423
              ],
              [
                43.499061,
                0.606745
              ],
              [
                43.513506,
                0.586217
              ],
              [
                43.532333,
                0.568478
              ],
              [
                43.55,
                0.55
              ],
              [
                43.568092,
                0.527401
              ],
              [
                43.586383,
                0.505021
              ],
              [
                43.608774,
                0.487151
              ],
              [
                43.639861,
                0.478847
              ],
              [
                43.675319,
                0.475351
              ],
              [
                43.70521,
                0.465731
              ],
              [
                43.727668,
                0.447935
              ],
              [
                43.750023,
                0.430026
              ],
              [
                43.774262,
                0.414188
              ],
              [
                43.792012,
                0.391214
              ],
              [
                43.799688,
                0.357157
              ],
              [
                43.808784,
                0.324662
              ],
              [
                43.831481,
                0.307129
              ],
              [
                43.862421,
                0.298663
              ],
              [
                43.885911,
                0.282002
              ],
              [
                43.897901,
                0.252691
              ],
              [
                43.908905,
                0.222295
              ],
              [
                43.925583,
                0.198141
              ],
              [
                43.942043,
                0.173747
              ],
              [
                43.953235,
                0.143558
              ],
              [
                43.9659,
                0.11499
              ],
              [
                43.988874,
                0.097761
              ],
              [
                44.019936,
                0.089429
              ],
              [
                44.05017,
                0.080187
              ],
              [
                44.076151,
                0.066266
              ],
              [
                44.1,
                0.05
              ],
              [
                44.097591,
                0.012341
              ],
              [
                44.092822,
                -0.02453
              ],
              [
                44.085476,
                -0.060543
              ],
              [
                44.078159,
                -0.096566
              ],
              [
                44.065384,
                -0.130769
              ],
              [
                44.04088,
                -0.161063
              ],
              [
                44.013333,
                -0.190342
              ],
              [
                43.999276,
                -0.224118
              ],
              [
                43.998558,
                -0.26234
              ],
              [
                43.992149,
                -0.298665
              ],
              [
                43.969371,
                -0.329534
              ],
              [
                43.942282,
                -0.358966
              ],
              [
                43.92398,
                -0.391327
              ],
              [
                43.907018,
                -0.424134
              ],
              [
                43.878297,
                -0.453022
              ],
              [
                43.845732,
                -0.480629
              ],
              [
                43.831394,
                -0.514311
              ],
              [
                43.840529,
                -0.555817
              ],
              [
                43.854872,
                -0.59906
              ],
              [
                43.858661,
                -0.638785
              ],
              [
                43.855257,
                -0.676111
              ],
              [
                43.852673,
                -0.713711
              ],
              [
                43.847639,
                -0.750495
              ],
              [
                43.83391,
                -0.78438
              ],
              [
                43.81548,
                -0.816699
              ],
              [
                43.8,
                -0.85
              ],
              [
                43.785072,
                -0.878453
              ],
              [
                43.766466,
                -0.904542
              ],
              [
                43.745214,
                -0.928929
              ],
              [
                43.717485,
                -0.949152
              ],
              [
                43.684406,
                -0.965937
              ],
              [
                43.657769,
                -0.986862
              ],
              [
                43.645679,
                -1.01714
              ],
              [
                43.638917,
                -1.050842
              ],
              [
                43.623106,
                -1.078727
              ],
              [
                43.599809,
                -1.1018
              ],
              [
                43.582131,
                -1.128485
              ],
              [
                43.571512,
                -1.159708
              ],
              [
                43.55495,
                -1.187111
              ],
              [
                43.528577,
                -1.208206
              ],
              [
                43.508264,
                -1.233197
              ],
              [
                43.507653,
                -1.270854
              ],
              [
                43.517361,
                -1.315144
              ],
              [
                43.517785,
                -1.353466
              ],
              [
                43.504443,
                -1.382939
              ],
              [
                43.487484,
                -1.410086
              ],
              [
                43.471209,
                -1.437673
              ],
              [
                43.449097,
                -1.461507
              ],
              [
                43.419077,
                -1.480258
              ],
              [
                43.389803,
                -1.499489
              ],
              [
                43.367929,
                -1.523476
              ],
              [
                43.35,
                -1.55
              ],
              [
                43.3594,
                -1.583761
              ],
              [
                43.367147,
                -1.618349
              ],
              [
                43.371717,
                -1.654526
              ],
              [
                43.378841,
                -1.689425
              ],
              [
                43.399153,
                -1.717731
              ],
              [
                43.431763,
                -1.739888
              ],
              [
                43.462076,
                -1.763193
              ],
              [
                43.481926,
                -1.791729
              ],
              [
                43.500317,
                -1.820995
              ],
              [
                43.525674,
                -1.846779
              ],
              [
                43.549093,
                -1.873531
              ],
              [
                43.558767,
                -1.907155
              ],
              [
                43.563037,
                -1.943482
              ],
              [
                43.581889,
                -1.972517
              ],
              [
                43.617357,
                -1.993244
              ],
              [
                43.649298,
                -2.015736
              ],
              [
                43.663408,
                -2.047142
              ],
              [
                43.667804,
                -2.083406
              ],
              [
                43.67524,
                -2.118149
              ],
              [
                43.683346,
                -2.152558
              ],
              [
                43.683877,
                -2.190754
              ],
              [
                43.681293,
                -2.230507
              ],
              [
                43.688205,
                -2.265513
              ],
              [
                43.707145,
                -2.294504
              ],
              [
                43.729495,
                -2.321791
              ],
              [
                43.75,
                -2.35
              ],
              [
                43.757899,
                -2.383977
              ],
              [
                43.766615,
                -2.417665
              ],
              [
                43.782461,
                -2.448837
              ],
              [
                43.810407,
                -2.475739
              ],
              [
                43.841843,
                -2.501408
              ],
              [
                43.86327,
                -2.530611
              ],
              [
                43.875049,
                -2.563218
              ],
              [
                43.887984,
                -2.595417
              ],
              [
                43.901946,
                -2.627254
              ],
              [
                43.904252,
                -2.663205
              ],
              [
                43.893668,
                -2.703705
              ],
              [
                43.889484,
                -2.741947
              ],
              [
                43.906031,
                -2.772872
              ],
              [
                43.93086,
                -2.800873
              ],
              [
                43.942126,
                -2.833661
              ],
              [
                43.938761,
                -2.871614
              ],
              [
                43.937362,
                -2.908872
              ],
              [
                43.944173,
                -2.943233
              ],
              [
                43.948637,
                -2.978422
              ],
              [
                43.945883,
                -3.016159
              ],
              [
                43.948031,
                -3.052166
              ],
              [
                43.96606,
                -3.082567
              ],
              [
                43.99364,
                -3.109598
              ],
              [
                44.017778,
                -3.137843
              ],
              [
                44.0354,
                -3.168388
              ],
              [
                44.05,
                -3.2
              ],
              [
                44.035704,
                -3.24373
              ],
              [
                44.018371,
                -3.285638
              ],
              [
                43.998775,
                -3.326188
              ],
              [
                43.978542,
                -3.366356
              ],
              [
                43.951619,
                -3.40251
              ],
              [
                43.914038,
                -3.432269
              ],
              [
                43.876571,
                -3.462097
              ],
              [
                43.853493,
                -3.500557
              ],
              [
                43.840689,
                -3.545183
              ],
              [
                43.819642,
                -3.584862
              ],
              [
                43.784245,
                -3.615932
              ],
              [
                43.748224,
                -3.646627
              ],
              [
                43.721091,
                -3.682654
              ],
              [
                43.69276,
                -3.717964
              ],
              [
                43.652959,
                -3.746391
              ],
              [
                43.613142,
                -3.774808
              ],
              [
                43.593346,
                -3.815238
              ],
              [
                43.593659,
                -3.867734
              ],
              [
                43.594727,
                -3.920682
              ],
              [
                43.584445,
                -3.966821
              ],
              [
                43.568567,
                -4.009602
              ],
              [
                43.553613,
                -4.052937
              ],
              [
                43.534868,
                -4.093998
              ],
              [
                43.507476,
                -4.12987
              ],
              [
                43.476932,
                -4.163851
              ],
              [
                43.45,
                -4.2
              ],
              [
                43.420453,
                -4.241316
              ],
              [
                43.38736,
                -4.27993
              ],
              [
                43.351139,
                -4.316161
              ],
              [
                43.308025,
                -4.34714
              ],
              [
                43.261284,
                -4.375355
              ],
              [
                43.223852,
                -4.410664
              ],
              [
                43.201324,
                -4.457328
              ],
              [
                43.181532,
                -4.506076
              ],
              [
                43.151293,
                -4.546864
              ],
              [
                43.115599,
                -4.583497
              ],
              [
                43.087458,
                -4.625884
              ],
              [
                43.064693,
                -4.672367
              ],
              [
                43.033297,
                -4.712274
              ],
              [
                42.993134,
                -4.745501
              ],
              [
                42.962725,
                -4.786161
              ],
              [
                42.952758,
                -4.842395
              ],
              [
                42.949416,
                -4.903676
              ],
              [
                42.933387,
                -4.955291
              ],
              [
                42.903947,
                -4.996688
              ],
              [
                42.872546,
                -5.036592
              ],
              [
                42.841391,
                -5.076683
              ],
              [
                42.803042,
                -5.111292
              ],
              [
                42.757472,
                -5.1404
              ],
              [
                42.714863,
                -5.171764
              ],
              [
                42.68067,
                -5.20954
              ],
              [
                42.65,
                -5.25
              ],
              [
                42.602185,
                -5.284615
              ],
              [
                42.553052,
                -5.317849
              ],
              [
                42.501807,
                -5.348871
              ],
              [
                42.4546,
                -5.384123
              ],
              [
                42.419726,
                -5.432295
              ],
              [
                42.393723,
                -5.489761
              ],
              [
                42.363417,
                -5.542719
              ],
              [
                42.324331,
                -5.586478
              ],
              [
                42.285695,
                -5.630709
              ],
              [
                42.252508,
                -5.680649
              ],
              [
                42.21492,
                -5.725978
              ],
              [
                42.164849,
                -5.75823
              ],
              [
                42.113027,
                -5.788647
              ],
              [
                42.07596,
                -5.834522
              ],
              [
                42.051152,
                -5.89324
              ],
              [
                42.019754,
                -5.945053
              ],
              [
                41.97268,
                -5.980445
              ],
              [
                41.919758,
                -6.00971
              ],
              [
                41.870657,
                -6.042978
              ],
              [
                41.821016,
                -6.075679
              ],
              [
                41.764545,
                -6.101227
              ],
              [
                41.707409,
                -6.126077
              ],
              [
                41.660297,
                -6.161428
              ],
              [
                41.623124,
                -6.207192
              ],
              [
                41.587563,
                -6.254644
              ],
              [
                41.55,
                -6.3
              ],
              [
                41.492493,
                -6.329728
              ],
              [
                41.435867,
                -6.360959
              ],
              [
                41.384314,
                -6.400843
              ],
              [
                41.339705,
                -6.452573
              ],
              [
                41.295439,
                -6.504889
              ],
              [
                41.244029,
                -6.545019
              ],
              [
                41.1875,
                -6.576415
              ],
              [
                41.132263,
                -6.610015
              ],
              [
                41.076382,
                -6.642516
              ],
              [
                41.012151,
                -6.660774
              ],
              [
                40.94147,
                -6.668028
              ],
              [
                40.877437,
                -6.686623
              ],
              [
                40.826415,
                -6.727413
              ],
              [
                40.77808,
                -6.772787
              ],
              [
                40.72002,
                -6.801572
              ],
              [
                40.65451,
                -6.817648
              ],
              [
                40.592105,
                -6.839021
              ],
              [
                40.534373,
                -6.868365
              ],
              [
                40.473936,
                -6.893094
              ],
              [
                40.409594,
                -6.911163
              ],
              [
                40.35004,
                -6.937399
              ],
              [
                40.300604,
                -6.980895
              ],
              [
                40.255543,
                -7.031854
              ],
              [
                40.207068,
                -7.076989
              ],
              [
                40.15446,
                -7.115075
              ],
              [
                40.1,
                -7.15
              ],
              [
                40.029911,
                -7.180584
              ],
              [
                39.958553,
                -7.206346
              ],
              [
                39.886467,
                -7.229344
              ],
              [
                39.813871,
                -7.2504
              ],
              [
                39.738517,
                -7.260979
              ],
              [
                39.659843,
                -7.258942
              ],
              [
                39.582281,
                -7.261129
              ],
              [
                39.510026,
                -7.283482
              ],
              [
                39.440362,
                -7.315685
              ],
              [
                39.367056,
                -7.334043
              ],
              [
                39.289441,
                -7.33603
              ],
              [
                39.212726,
                -7.341435
              ],
              [
                39.138996,
                -7.358184
              ],
              [
                39.063968,
                -7.37
              ],
              [
                38.98511,
                -7.367264
              ],
              [
                38.907586,
                -7.369594
              ],
              [
                38.837649,
                -7.400759
              ],
              [
                38.773639,
                -7.454443
              ],
              [
                38.708503,
                -7.503848
              ],
              [
                38.639207,
                -7.537447
              ],
              [
                38.568444,
                -7.565474
              ],
              [
                38.497938,
                -7.59447
              ],
              [
                38.42561,
                -7.616549
              ],
              [
                38.350291,
                -7.62726
              ],
              [
                38.274402,
                -7.635806
              ],
              [
                38.2,
                -7.65
              ],
              [
                38.094987,
                -7.651933
              ],
              [
                37.989887,
                -7.650256
              ],
              [
                37.884629,
                -7.641918
              ],
              [
                37.779319,
                -7.631383
              ],
              [
                37.674368,
                -7.635963
              ],
              [
                37.569634,
                -7.649648
              ],
              [
                37.464646,
                -7.652638
              ],
              [
                37.359618,
                -7.653941
              ],
              [
                37.254802,
                -7.664172
              ],
              [
                37.149794,
                -7.666328
              ],
              [
                37.044626,
                -7.6618
              ],
              [
                36.93992,
                -7.676656
              ],
              [
                36.835505,
                -7.703703
              ],
              [
                36.730725,
                -7.715442
              ],
              [
                36.625682,
                -7.716126
              ],
              [
                36.520654,
                -7.717467
              ],
              [
                36.415443,
                -7.71111
              ],
              [
                36.310108,
                -7.699556
              ],
              [
                36.204984,
                -7.696846
              ],
              [
                36.1,
                -7.7
              ],
              [
                35.957562,
                -7.672603
              ],
              [
                35.81515,
                -7.645061
              ],
              [
                35.67153,
                -7.624423
              ],
              [
                35.527951,
                -7.603548
              ],
              [
                35.384793,
                -7.580265
              ],
              [
                35.241661,
                -7.556836
              ],
              [
                35.099481,
                -7.527967
              ],
              [
                34.955814,
                -7.507591
              ],
              [
                34.812789,
                -7.483554
              ],
              [
                34.670611,
                -7.454673
              ],
              [
                34.528369,
                -7.426159
              ],
              [
                34.386416,
                -7.39599
              ],
              [
                34.243262,
                -7.372689
              ],
              [
                34.1,
                -7.35
              ],
              [
                33.960816,
                -7.310354
              ],
              [
                33.820453,
                -7.274887
              ],
              [
                33.679919,
                -7.240028
              ],
              [
                33.540757,
                -7.200302
              ],
              [
                33.401775,
                -7.15994
              ],
              [
                33.264497,
                -7.113536
              ],
              [
                33.125087,
                -7.074691
              ],
              [
                32.985543,
                -7.036323
              ],
              [
                32.847414,
                -6.992936
              ],
              [
                32.708436,
                -6.952559
              ],
              [
                32.570129,
                -6.909801
              ],
              [
                32.429908,
                -6.873833
              ],
              [
                32.289485,
                -6.838578
              ],
              [
                32.15,
                -6.8
              ],
              [
                32.04735,
                -6.763735
              ],
              [
                31.946333,
                -6.723629
              ],
              [
                31.846125,
                -6.681617
              ],
              [
                31.749527,
                -6.631112
              ],
              [
                31.65525,
                -6.575148
              ],
              [
                31.555508,
                -6.532039
              ],
              [
                31.452459,
                -6.496715
              ],
              [
                31.354691,
                -6.448961
              ],
              [
                31.258619,
                -6.397219
              ],
              [
                31.158939,
                -6.353968
              ],
              [
                31.061767,
                -6.304812
              ],
              [
                30.966931,
                -6.250163
              ],
              [
                30.863958,
                -6.214657
              ],
              [
                30.754417,
                -6.194608
              ],
              [
                30.648697,
                -6.165566
              ],
              [
                30.546477,
                -6.128289
              ],
              [
                30.444299,
                -6.090915
              ],
              [
                30.345209,
                -6.046272
              ],
              [
                30.248469,
                -5.996103
              ],
              [
                30.15,
                -5.95
              ]
            ]
          ],
          [
            [
              [
                44.789121,
                4.989436
              ],
              [
                44.784156,
                5.035799
              ],
              [
                44.766226,
                5.077392
              ],
              [
                44.744228,
                5.115359
              ],
              [
                44.723289,
                5.153375
              ],
              [
                44.701579,
                5.190467
              ],
              [
                44.675926,
                5.221207
              ],
              [
                44.647514,
                5.244129
              ],
              [
                44.62041,
                5.266548
              ],
              [
                44.595978,
                5.296866
              ],
              [
                44.571297,
                5.332014
              ],
              [
                44.543578,
                5.356376
              ],
              [
                44.514276,
                5.356274
              ],
              [
                44.487377,
                5.334683
              ],
              [
                44.464549,
                5.308949
              ],
              [
                44.443829,
                5.293732
              ],
              [
                44.423079,
                5.288764
              ],
              [
                44.4026,
                5.284777
              ],
              [
                44.382888,
                5.278591
              ],
              [
                44.361261,
                5.277644
              ],
              [
                44.333653,
                5.288389
              ],
              [
                44.300747,
                5.303899
              ],
              [
                44.270227,
                5.3074
              ],
              [
                44.250353,
                5.288656
              ],
              [
                44.241085,
                5.254157
              ],
              [
                44.233507,
                5.219493
              ],
              [
                44.219159,
                5.193384
              ],
              [
                44.198824,
                5.171438
              ],
              [
                44.180553,
                5.144565
              ],
              [
                44.169752,
                5.109742
              ],
              [
                44.163836,
                5.070641
              ],
              [
                44.158004,
                5.03034
              ],
              [
                44.154317,
                4.98769
              ],
              [
                44.161746,
                4.941701
              ],
              [
                44.186031,
                4.896158
              ],
              [
                44.221333,
                4.85669
              ],
              [
                44.254133,
                4.823944
              ],
              [
                44.275414,
                4.79267
              ],
              [
                44.287603,
                4.758476
              ],
              [
                44.299366,
                4.723083
              ],
              [
                44.315574,
                4.690724
              ],
              [
                44.334113,
                4.660963
              ],
              [
                44.351507,
                4.628879
              ],
              [
                44.36861,
                4.593485
              ],
              [
                44.389145,
                4.56254
              ],
              [
                44.414111,
                4.544853
              ],
              [
                44.440211,
                4.537718
              ],
              [
                44.464273,
                4.525842
              ],
              [
                44.487354,
                4.495824
              ],
              [
                44.513043,
                4.450864
              ],
              [
                44.542608,
                4.408488
              ],
              [
                44.573688,
                4.383483
              ],
              [
                44.603748,
                4.375654
              ],
              [
                44.632704,
                4.375755
              ],
              [
                44.660677,
                4.380575
              ],
              [
                44.68462,
                4.397469
              ],
              [
                44.700122,
                4.432753
              ],
              [
                44.707535,
                4.479314
              ],
              [
                44.71424,
                4.520142
              ],
              [
                44.728211,
                4.544717
              ],
              [
                44.749152,
                4.559198
              ],
              [
                44.767915,
                4.578803
              ],
              [
                44.775842,
                4.611839
              ],
              [
                44.773545,
                4.653465
              ],
              [
                44.768937,
                4.694105
              ],
              [
                44.767322,
                4.730223
              ],
              [
                44.766044,
                4.764953
              ],
              [
                44.760267,
                4.800808
              ],
              [
                44.752052,
                4.836061
              ],
              [
                44.750403,
                4.86913
              ],
              [
                44.761129,
                4.903196
              ],
              [
                44.778497,
                4.943284
              ],
              [
                44.789121,
                4.989436
              ]
            ]
          ],
          [
            [
              [
                44.792122,
                3.923986
              ],
              [
                44.801545,
                3.955477
              ],
              [
                44.799267,
                3.987111
              ],
              [
                44.796421,
                4.017863
              ],
              [
                44.79128,
                4.04737
              ],
              [
                44.779186,
                4.071713
              ],
              [
                44.76751,
                4.094673
              ],
              [
                44.761194,
                4.123361
              ],
              [
                44.750222,
                4.148209
              ],
              [
                44.72746,
                4.153137
              ],
              [
                44.70178,
                4.144706
              ],
              [
                44.682222,
                4.142349
              ],
              [
                44.666303,
                4.147071
              ],
              [
                44.650277,
                4.150327
              ],
              [
                44.634492,
                4.159002
              ],
              [
                44.617058,
                4.178682
              ],
              [
                44.596385,
                4.191075
              ],
              [
                44.576548,
                4.18018
              ],
              [
                44.559363,
                4.159861
              ],
              [
                44.540019,
                4.148236
              ],
              [
                44.517875,
                4.139132
              ],
              [
                44.498431,
                4.121001
              ],
              [
                44.481515,
                4.097504
              ],
              [
                44.464486,
                4.072504
              ],
              [
                44.455463,
                4.040771
              ],
              [
                44.462698,
                4.003907
              ],
              [
                44.475715,
                3.971807
              ],
              [
                44.478799,
                3.94574
              ],
              [
                44.474889,
                3.91996
              ],
              [
                44.475139,
                3.894277
              ],
              [
                44.477781,
                3.86915
              ],
              [
                44.478041,
                3.841459
              ],
              [
                44.48311,
                3.815743
              ],
              [
                44.497686,
                3.799821
              ],
              [
                44.51145,
                3.784778
              ],
              [
                44.516904,
                3.755113
              ],
              [
                44.522512,
                3.717895
              ],
              [
                44.536855,
                3.692974
              ],
              [
                44.556957,
                3.681686
              ],
              [
                44.578546,
                3.675717
              ],
              [
                44.601423,
                3.682088
              ],
              [
                44.623133,
                3.706419
              ],
              [
                44.641516,
                3.73035
              ],
              [
                44.660075,
                3.737711
              ],
              [
                44.68007,
                3.7421
              ],
              [
                44.696144,
                3.761274
              ],
              [
                44.707143,
                3.788613
              ],
              [
                44.718082,
                3.812036
              ],
              [
                44.728344,
                3.834599
              ],
              [
                44.734896,
                3.859492
              ],
              [
                44.74551,
                3.880759
              ],
              [
                44.768152,
                3.899228
              ],
              [
                44.792122,
                3.923986
              ]
            ]
          ],
          [
            [
              [
                44.780636,
                -1.724003
              ],
              [
                44.769014,
                -1.687399
              ],
              [
                44.745558,
                -1.658593
              ],
              [
                44.720043,
                -1.633112
              ],
              [
                44.695449,
                -1.60743
              ],
              [
                44.668774,
                -1.58594
              ],
              [
                44.6396,
                -1.572988
              ],
              [
                44.611365,
                -1.562574
              ],
              [
                44.585141,
                -1.544871
              ],
              [
                44.558202,
                -1.522807
              ],
              [
                44.53,
                -1.513032
              ],
              [
                44.504618,
                -1.52612
              ],
              [
                44.484832,
                -1.552353
              ],
              [
                44.467715,
                -1.573308
              ],
              [
                44.449339,
                -1.582979
              ],
              [
                44.430307,
                -1.589419
              ],
              [
                44.412162,
                -1.597689
              ],
              [
                44.391131,
                -1.601821
              ],
              [
                44.362122,
                -1.597396
              ],
              [
                44.329176,
                -1.593576
              ],
              [
                44.304921,
                -1.60446
              ],
              [
                44.295997,
                -1.631673
              ],
              [
                44.293985,
                -1.663304
              ],
              [
                44.285989,
                -1.689679
              ],
              [
                44.270911,
                -1.713067
              ],
              [
                44.258795,
                -1.740238
              ],
              [
                44.255502,
                -1.772299
              ],
              [
                44.25628,
                -1.806177
              ],
              [
                44.257088,
                -1.841017
              ],
              [
                44.26468,
                -1.876934
              ],
              [
                44.288358,
                -1.909974
              ],
              [
                44.324891,
                -1.935083
              ],
              [
                44.359396,
                -1.954127
              ],
              [
                44.381757,
                -1.974907
              ],
              [
                44.396014,
                -2.000717
              ],
              [
                44.411578,
                -2.026556
              ],
              [
                44.431032,
                -2.048406
              ],
              [
                44.450954,
                -2.0702
              ],
              [
                44.470473,
                -2.095869
              ],
              [
                44.49256,
                -2.11904
              ],
              [
                44.517803,
                -2.129564
              ],
              [
                44.542979,
                -2.130095
              ],
              [
                44.567038,
                -2.137067
              ],
              [
                44.593562,
                -2.160891
              ],
              [
                44.624824,
                -2.191748
              ],
              [
                44.657407,
                -2.211169
              ],
              [
                44.686905,
                -2.213164
              ],
              [
                44.713457,
                -2.205858
              ],
              [
                44.738171,
                -2.194446
              ],
              [
                44.756859,
                -2.173147
              ],
              [
                44.764047,
                -2.13779
              ],
              [
                44.763427,
                -2.097834
              ],
              [
                44.767316,
                -2.067726
              ],
              [
                44.782083,
                -2.049485
              ],
              [
                44.79908,
                -2.031639
              ],
              [
                44.805229,
                -2.004988
              ],
              [
                44.799296,
                -1.972315
              ],
              [
                44.791236,
                -1.940927
              ],
              [
                44.786871,
                -1.912497
              ],
              [
                44.78146,
                -1.884534
              ],
              [
                44.771021,
                -1.856778
              ],
              [
                44.762417,
                -1.829948
              ],
              [
                44.765105,
                -1.800693
              ],
              [
                44.776057,
                -1.764559
              ],
              [
                44.780636,
                -1.724003
              ]
            ]
          ],
          [
            [
              [
                44.542192,
                -3.999075
              ],
              [
                44.555616,
                -3.967017
              ],
              [
                44.556575,
                -3.933468
              ],
              [
                44.555832,
                -3.901078
              ],
              [
                44.554179,
                -3.869494
              ],
              [
                44.545512,
                -3.841711
              ],
              [
                44.533397,
                -3.817821
              ],
              [
                44.526952,
                -3.79075
              ],
              [
                44.522885,
                -3.760143
              ],
              [
                44.508592,
                -3.739941
              ],
              [
                44.482581,
                -3.738838
              ],
              [
                44.456685,
                -3.744665
              ],
              [
                44.438031,
                -3.742368
              ],
              [
                44.422599,
                -3.734522
              ],
              [
                44.406609,
                -3.7283
              ],
              [
                44.391214,
                -3.716934
              ],
              [
                44.375392,
                -3.694341
              ],
              [
                44.355719,
                -3.675357
              ],
              [
                44.333519,
                -3.67861
              ],
              [
                44.312776,
                -3.698056
              ],
              [
                44.292408,
                -3.713269
              ],
              [
                44.269347,
                -3.72054
              ],
              [
                44.245956,
                -3.732559
              ],
              [
                44.225591,
                -3.753745
              ],
              [
                44.206027,
                -3.777402
              ],
              [
                44.187027,
                -3.803168
              ],
              [
                44.177511,
                -3.837026
              ],
              [
                44.183147,
                -3.876002
              ],
              [
                44.193384,
                -3.910009
              ],
              [
                44.194043,
                -3.937093
              ],
              [
                44.186784,
                -3.963062
              ],
              [
                44.182473,
                -3.989817
              ],
              [
                44.181947,
                -4.016262
              ],
              [
                44.179089,
                -4.044663
              ],
              [
                44.17739,
                -4.074405
              ],
              [
                44.185839,
                -4.097739
              ],
              [
                44.200955,
                -4.113676
              ],
              [
                44.209894,
                -4.135573
              ],
              [
                44.210871,
                -4.171592
              ],
              [
                44.21538,
                -4.209101
              ],
              [
                44.230166,
                -4.232644
              ],
              [
                44.250786,
                -4.244473
              ],
              [
                44.273011,
                -4.251512
              ],
              [
                44.29751,
                -4.246829
              ],
              [
                44.322761,
                -4.224254
              ],
              [
                44.344822,
                -4.198625
              ],
              [
                44.364493,
                -4.188652
              ],
              [
                44.385232,
                -4.188459
              ],
              [
                44.405435,
                -4.177865
              ],
              [
                44.421523,
                -4.153486
              ],
              [
                44.435368,
                -4.128411
              ],
              [
                44.449857,
                -4.107525
              ],
              [
                44.462327,
                -4.08466
              ],
              [
                44.472137,
                -4.060041
              ],
              [
                44.487846,
                -4.040284
              ],
              [
                44.514804,
                -4.023089
              ],
              [
                44.542192,
                -3.999075
              ]
            ]
          ],
          [
            [
              [
                43.82963,
                -5.516927
              ],
              [
                43.83598,
                -5.493548
              ],
              [
                43.823198,
                -5.473024
              ],
              [
                43.807104,
                -5.454008
              ],
              [
                43.791455,
                -5.435329
              ],
              [
                43.768839,
                -5.419953
              ],
              [
                43.739729,
                -5.409134
              ],
              [
                43.714431,
                -5.397478
              ],
              [
                43.695493,
                -5.380947
              ],
              [
                43.672352,
                -5.366409
              ],
              [
                43.637753,
                -5.36467
              ],
              [
                43.598498,
                -5.375032
              ],
              [
                43.564595,
                -5.385423
              ],
              [
                43.536764,
                -5.388483
              ],
              [
                43.510427,
                -5.388459
              ],
              [
                43.483912,
                -5.389653
              ],
              [
                43.456085,
                -5.387829
              ],
              [
                43.423125,
                -5.379599
              ],
              [
                43.385387,
                -5.37276
              ],
              [
                43.35148,
                -5.37816
              ],
              [
                43.327256,
                -5.394908
              ],
              [
                43.305886,
                -5.412308
              ],
              [
                43.277868,
                -5.424873
              ],
              [
                43.246169,
                -5.437175
              ],
              [
                43.220781,
                -5.453968
              ],
              [
                43.20214,
                -5.473768
              ],
              [
                43.183551,
                -5.494101
              ],
              [
                43.169363,
                -5.51584
              ],
              [
                43.174822,
                -5.539
              ],
              [
                43.202491,
                -5.55998
              ],
              [
                43.232628,
                -5.576827
              ],
              [
                43.246213,
                -5.592642
              ],
              [
                43.247129,
                -5.610226
              ],
              [
                43.251044,
                -5.627816
              ],
              [
                43.261496,
                -5.643838
              ],
              [
                43.270788,
                -5.660878
              ],
              [
                43.279042,
                -5.679836
              ],
              [
                43.296156,
                -5.694992
              ],
              [
                43.324212,
                -5.702013
              ],
              [
                43.352134,
                -5.707508
              ],
              [
                43.372106,
                -5.722066
              ],
              [
                43.390333,
                -5.744808
              ],
              [
                43.416191,
                -5.763529
              ],
              [
                43.449748,
                -5.770776
              ],
              [
                43.485752,
                -5.770751
              ],
              [
                43.521848,
                -5.767755
              ],
              [
                43.556217,
                -5.757598
              ],
              [
                43.584357,
                -5.736985
              ],
              [
                43.605951,
                -5.713846
              ],
              [
                43.62896,
                -5.699209
              ],
              [
                43.658612,
                -5.692404
              ],
              [
                43.687486,
                -5.68299
              ],
              [
                43.705533,
                -5.665776
              ],
              [
                43.715213,
                -5.64566
              ],
              [
                43.726065,
                -5.62775
              ],
              [
                43.738128,
                -5.610944
              ],
              [
                43.74437,
                -5.593167
              ],
              [
                43.748869,
                -5.575712
              ],
              [
                43.766666,
                -5.559021
              ],
              [
                43.800188,
                -5.53993
              ],
              [
                43.82963,
                -5.516927
              ]
            ]
          ]
        ]
      }
    }
  ]
}
